[{"OBJECT_NAME":"LEMUR-2-MARACHE-FRAN","OBJECT_ID":"2025-052BE","EPOCH":"2026-03-09T17:00:45.199872","MEAN_MOTION":14.98898773,"ECCENTRICITY":0.00023242,"INCLINATION":97.6985,"RA_OF_ASC_NODE":323.5335,"ARG_OF_PERICENTER":45.7689,"MEAN_ANOMALY":314.3725,"EPHEMERIS_TYPE":0,"CLASSIFICATION_TYPE":"U","NORAD_CAT_ID":63262,"ELEMENT_SET_NO":999,"REV_AT_EPOCH":5385,"BSTAR":0.0006846049,"MEAN_MOTION_DOT":8.22e-5,"MEAN_MOTION_DDOT":0},{"OBJECT_NAME":"STARLINK-34487","OBJECT_ID":"2025-129F","EPOCH":"2026-03-09T23:28:57.027648","MEAN_MOTION":14.98334211,"ECCENTRICITY":0.00038064,"INCLINATION":70.0014,"RA_OF_ASC_NODE":73.6074,"ARG_OF_PERICENTER":270.3805,"MEAN_ANOMALY":89.6918,"EPHEMERIS_TYPE":0,"CLASSIFICATION_TYPE":"U","NORAD_CAT_ID":64417,"ELEMENT_SET_NO":999,"REV_AT_EPOCH":4127,"BSTAR":0.0002173376,"MEAN_MOTION_DOT":2.501e-5,"MEAN_MOTION_DDOT":0}]
